id,location,Remote,City,County,State,Country
b3704276-7ed7-4880-8d45-f35052964659,"New York, New York, United States",,New York,New York,NY,United States
a71fdb23-3447-4b5f-8fca-db08a774e48b,"Cambridge, MA, United States",,Cambridge,Middlesex,MA,United States
df2d1d3f-4408-45ca-b586-3f07eb24e0e6,"Chicago, IL, United States",,Chicago,Cook,IL,United States
9dde244a-f5b9-458d-b99b-7cfa19cfa798,"Montreal, , Canada",,Montreal,,,Canada
36b9af5b-fcc0-457d-b7f3-efc61625bbdb,"London, , United Kingdom",,London,,,United Kingdom
aa48ee67-6f39-47ae-b1d0-0bcabcbfac6f,"London, , United Kingdom",,London,,,United Kingdom
d81e897e-0bc7-4013-81b9-85c35cb96f57,"Brooklyn, NY, United States",,Brooklyn,Kings,NY,United States
1e457e27-8d08-4205-bbc8-e5c4ef1f23f6,"Chicago, IL, United States",,Chicago,Cook,IL,United States
25f23b53-161e-4dcb-9c21-a0131784412d,"Ludwigshafen, , Germany",,Ludwigshafen,,,Germany
db868fae-b183-4585-ba44-edd0f8d5ef20,"Ludwigshafen, , Germany",,Ludwigshafen,,,Germany
d4383e28-fc94-4121-9140-60b47c6b3437,"Philadelphia, PA",,Philadelphia,Philadelphia,PA,United States
72a7d943-8c12-4fb1-8822-9379471472ba,"Philadelphia, PA",,Philadelphia,Philadelphia,PA,United States
eeb8a550-a0db-4a86-b10e-6b38cd876820,"Ratingen bei Düsseldorf, , Germany",,Ratingen bei Düsseldorf,,,Germany
df799d54-3192-47c2-bd8a-b35d6dc777ee,"Athens, Greece",,Athens,,,Greece
6938b34e-8cb6-4169-9412-aacccba36fa2,"Nürnberg, Germany",,Nürnberg,,,Germany
f9ea8329-af09-4635-8e05-e358963e2af3,"Cambridge, MA, United States",,Cambridge,Middlesex,MA,United States
d7352c67-72e0-4ca7-bde1-8b4a684787be,Frankfurt (Main),,Frankfurt,,,Germany
06a16b78-62ba-45dc-a95f-318af7f32993,Remote,Remote,,,,
2d04bba5-abf7-4b1c-8b74-f267121d7fa5,"Amsterdam, Netherlands",,Amsterdam,,,Netherlands
bb3120a1-92f6-4010-a3b0-ce2b0f6aef8a,Maassluis,,Maassluis,,,Netherlands
d6a3d5ac-a77a-47cf-9bb5-fb4bfc7f46be,Remote,Remote,,,,
dbe373b9-a25d-47e7-8592-947f65e4a994,Dordrecht,,Dordrecht,,,Netherlands
5086af3e-a27d-40d8-b443-d607a950088d,"Toronto, Canada",,Toronto,,,Canada
ce155747-6ea4-4c8d-9046-275167ef7bf6,"Berlin, Germany",,Berlin,,,Germany
cb24f618-6f83-47eb-8685-113b3448d616,"Aliso Viejo, CA",,Aliso Viejo,Orange,CA,United States
77a33cfb-72c9-49e6-8d53-5bb99a40f8b3,Remote - New York City ,Remote,New York,New York,NY,United States
a9de427e-67d2-4ac4-a432-b27988b2f9b5,"Portland, ME",,Portland,Cumberland,ME,United States
12973170-6235-455d-8aa2-98eec4edcf82,United States,Remote,,,,United States
c57950f9-b6f2-45db-92c8-1dbb8516baf0,"Buffalo, NY",,Buffalo,Erie,NY,United States
8ce73d82-fc32-4074-9187-12f042bb002a,"Toronto, Canada",,Toronto,,,Canada
c8c80fd5-9224-4a78-9d25-97ccc2ba0080,Büdelsdorf,,Büdelsdorf,,,Germany
1d207808-b7d9-4d6c-93d2-556b3744de1f,"Den Bosch, Netherlands",,Den Bosch,,,Netherlands
6232b12d-afce-4184-b2b2-f99fe214095b,"New York, New York",,New York,New York,NY,United States
112df01c-1391-4b39-9915-201db08d00b0,"London, , United Kingdom",,London,,,United Kingdom
c802f063-68ed-4e2a-aacb-bfa33c29f4cf,"Heidelberg, Germany",,Heidelberg,,,Germany
3ac51201-9e28-4db5-9c91-2392988f97cb,"Heidelberg, Germany",,Heidelberg,,,Germany
671028da-2e60-4f68-9acd-436e046e8389,"Utrecht, Netherlands",,Utrecht,,,Netherlands
9b6d5d0d-c0c6-4394-9873-98926a9b75ab,"Barcelona, Spain",,Barcelona,,,Spain
3709d1fd-c703-427a-927f-53b26d85fdf6,"Heerbrugg, Switzerland",,Heerbrugg,,,Switzerland
7bb9ab14-b856-482d-b44e-7cfd41d7e0da,"Aliso Viejo, CA",,Aliso Viejo,Orange,CA,United States
ab86aa90-f7ae-4eb5-b8b1-8cfa522aab97,"Rotterdam, Netherlands",,Rotterdam,,,Netherlands
f7c24055-a597-4834-b61f-80a9ba0c3972,"Copenhagen, Denmark",,Copenhagen,,,Denmark
2b05c4f6-7f20-4798-8ce9-4f23d4a038c9,"Oberkochen, Germany",,Oberkochen,,,Germany
c907ad25-2990-408d-ae12-2eb1cd00f81d,"Frankfurt, Germany",,Frankfurt,,,Germany
9096c778-0807-4d8e-828f-9d579f233270,Veldhoven,,Veldhoven,,,Netherlands
a2c3386f-b9ba-4e22-ad0d-7a38c5beb2d2,Chengdu,,Chengdu,,,China
e2a15c35-e716-4a21-94f7-c91827fef398,"Helsinki, Finland",,Helsinki,,,Finland
fa53ecb5-45f9-4242-a662-1858fcff966a,"San Diego, CA",,San Diego,San Diego,CA,United States
7bdd5209-84f4-4c29-a55d-44ca020622cd,"San Francisco, CA",,San Francisco,San Francisco,CA,United States
788d329d-a032-440e-95ba-16f7501b7422,"Washington, DC",,Washington,,DC,United States
a9a347e5-7bc7-47a7-a83e-60083b737b61,"Chicago, IL, United States",,Chicago,Cook,IL,United States
22c21b3e-5db9-40d8-a428-31f9d20604a0,"Chicago, IL, United States",,Chicago,Cook,IL,United States
af3fe5c4-3368-4757-81d1-b662d8ad627a,"Chicago, IL, United States",,Chicago,Cook,IL,United States
67759f11-37c4-4185-bd43-e9c5824fda13,"Bremen, Germany",,Bremen,,,Germany
f8231081-8164-4556-ad79-f4ca2e194049,Hamburg oder Mainz,,Hamburg oder Mainz,,,Germany
c1a6ca22-7fca-4100-a9e4-fc613827800c,"Nijverdal, Netherlands",,Nijverdal,,,Netherlands
4f6b0702-0ce8-4384-a1f1-a1b6831347d6,"Rotterdam, Netherlands",,Rotterdam,,,Netherlands
2bd53684-3f96-440f-9edf-73ee5baa0ecf,"Rotterdam, Netherlands",,Rotterdam,,,Netherlands
f5324f5f-9ba7-4eea-b4b5-c0a86c640a24,Washington,,Washington,,DC,United States
081821c4-110c-4acc-b675-a443865a00bb,"Pompano Beach, FL, US",,Pompano Beach,Broward,FL,United States
bf38b770-8086-4ed9-87dc-e548e08dc155,"Dallas, TX",,Dallas,Dallas,TX,United States
72e3c03b-3b4a-4548-9b81-234507fcf9a4,"Toronto, Canada",,Toronto,,,Canada
4e8d134e-0284-4079-a911-8276eff7c90f,"Lisbon, Portugal",,Lisbon,,,Portugal
e4a616bb-384e-45fd-8200-70403969d7bd,"Birmingham, AL",,Birmingham,Jefferson,AL,United States
94801e9f-dffe-4aac-9bb8-360db15e7aa0,"Berlin, Germany",,Berlin,,,Germany
be2b29b3-9be3-40dc-aa03-76b112acd03b,"San Francisco, CA",,San Francisco,San Francisco,CA,United States
4b17ca2b-1a93-479e-82bf-3af5fd8c3158,"Chicago, IL, United States",,Chicago,Cook,IL,United States
f724f091-4b8b-480d-b139-cff9f08803f1,Stockholm,,Stockholm,,,Sweden
60d6e342-83e1-433a-a4b4-358946d51eb7,Lausanne,,Lausanne,,,Switzerland
7edd9353-9b49-45e2-a337-03ce2a502edc,Oslo,,Oslo,,,Norway
e67a5e0c-feb0-4bf2-a279-13699606574b,"Hamburg, Germany",,Hamburg,,,Germany
98c094f6-3d19-4fa6-8b1e-53e2fb7f1ac8,"Deutschland, Hamburg",,Hamburg,,,Germany
f1b4a76d-5e00-4ddd-8015-d435612256fa,"Hamburg, Germany",,Hamburg,,,Germany
3299b71e-0c21-4bec-9c04-0d74c9db6331,"Hamburg, Germany",,Hamburg,,,Germany
eab55c8a-cc75-4a66-9153-eb6f5ed2c273,Hamburg ,,Hamburg ,,,Germany
20bbb9b0-62e4-4a27-958d-960d02d7eb89,"Hamburg, Germany",,Hamburg,,,Germany
2c967b75-c9df-49fe-9221-3aa8288c6d8b,"Hamburg, Germany",,Hamburg,,,Germany
b127f06d-7c7b-4dba-bfbb-8689ace3de68,"Hamburg, Germany",,Hamburg,,,Germany
2ec9ba4e-5a11-4266-b761-7f6ddb4f28c1,"Hamburg, Germany ",,Hamburg,,,Germany
5c1e7811-25c1-4674-a7fb-ec277fcad643,"Budapest, Hungary",,Budapest,,,Hungary
86c2bab8-691d-42e0-ae0d-db7752129214,"Fairfax, VA ",,Fairfax,Fairfax City,VA,United States
c06300ce-26e1-4a2f-ba13-0b48acaf1c14,New York Area or Remote,Remote,,,NY,United States
28e8abf4-666f-4c62-b0f5-94d90f44aabd,"Amsterdam, Netherlands",,Amsterdam,,,Netherlands
e9e632a7-c756-40c9-b1ca-c3eb5c7f9ce3,"San Francisco, Mountain View, Tokyo, Remote",Remote,San Francisco,San Francisco,CA,United States
485a0e0a-aeed-4a38-88bb-56b44de83dc2,"Thousand Oaks, CA",,Thousand Oaks,Ventura,CA,United States
3954f07c-c9ee-449d-90e2-4f50bb6c6eda,"Thousand Oaks, CA",,Thousand Oaks,Ventura,CA,United States
30ec5d24-72e4-455f-9231-a137ad3a6b6e,Remote in US,Remote,,,,United States
bef92653-9ad7-4fb2-bacf-d4e3cd4b90a3,"San Francisco, CA",,San Francisco,San Francisco,CA,United States
8ac44442-1d92-48f9-b7b8-969a1ed462e9,Sherman Oaks,,Sherman Oaks,Los Angeles,CA,United States
6a489d4e-edd0-4c91-9591-535a5458bce6,"Dublin, Ohio 43017",,Dublin,Franklin,OH,United States
3af6837a-5335-47f0-96f3-09ec4f263755,"Warsaw, Poland",,Warsaw,,,Poland
99dca2ab-5151-4d67-b9d7-3c698a099e74,"Fukuoka, Japan",,Fukuoka,,,Japan
34c58792-e22c-4d90-b2ab-bddf3114ce4a,Vienna,,Vienna,,,Austria
2e5c4529-5d38-4e72-b63b-8fc7023d4bcc,Delft,,Delft,,,Netherlands
2de28feb-0afe-43f5-819f-3ea1bd198a17,Gothenburg ,,Gothenburg ,,,Sweden
1dd6197b-b2be-40bf-a1f2-5e22039e0e81,"Fukuoka, Japan",,Fukuoka,,,Japan
0e356b08-66b6-46de-a4fd-79b51f2e988d,"New York, New York",,New York,New York,NY,United States
28149e15-c52a-43b0-a053-12abfb589244,Veldhoven,,Veldhoven,,,Netherlands
1641560a-5566-4de0-8c04-9cf7863d9029,"Frankfurt, Germany",,Frankfurt,,,Germany
9a4cb2de-23bf-4d39-ba3f-330cf833f391,"Den Haag, Netherlands",,Den Haag,,,Netherlands
ab59947d-bb34-4441-b0e5-6f5bcdcc7d48,Zoetermeer,,Zoetermeer,,,Netherlands
02fe9422-c1ad-4c52-852e-6a435c686f78,Remote,Remote,,,,
a115d00c-cac6-4f0e-9c36-8e62051da30e,Affing (bei Augsburg),,Affing (bei Augsburg),,,Germany
062a38ba-4d70-49f7-ae9a-efa3140b5a18,Remote (United States),Remote,,,,United States
0ff0f0f0-5160-409d-b99b-1db51243fc92,"Columbus, Ohio",,Columbus,Franklin,OH,United States
50ea4aef-7bd6-49f0-a8fc-9362954704c2,"Dublin, Ohio",,Dublin,Franklin,OH,United States
e46ab67d-c6d2-43cd-9e92-0e0f5c5c1307,Remote,Remote,,,,
64d02e69-bbcd-4c4f-94be-f6b48d8299af,"Basel, Switzerland",,Basel,,,Switzerland
4602fc59-ca42-47a1-afc9-13c45c3a8363,"Basel, Switzerland",,Basel,,,Switzerland
939ca606-64cd-4c55-b9d6-cd059ca92221,"Basel, Switzerland",,Basel,,,Switzerland
90a6c062-4201-4ff6-9be0-d935580ced49,Remote,Remote,,,,
97479b00-c22f-472d-875f-b2653b9c52ab,"Los Angeles, CA",,Los Angeles,Los Angeles,CA,United States
29d64e7d-2116-4e09-b5b7-afe645bd6f4d,"South Sioux City,NE",,South Sioux City,Dakota,NE,United States
9379a6ef-7c4e-4b0f-8779-862857b06112,"Saratoga Springs, NY",,Saratoga Springs,Saratoga,NY,United States
25ced92f-d4a5-469b-b8d4-b43e939fcd87,"Los Angeles, CA",,Los Angeles,Los Angeles,CA,United States
2644a623-a29d-430c-ba08-d250c730353c,"Aliso Viejo, CA",,Aliso Viejo,Orange,CA,United States
05e76964-a9fe-4fcf-b4bb-cf1b74250248,"Aliso Viejo, CA",,Aliso Viejo,Orange,CA,United States
439f06ca-1599-4de8-9e65-e00f7767776a,"Aliso Viejo, CA",,Aliso Viejo,Orange,CA,United States
83d58316-6350-4960-9cb2-2500d22540bb,Remote,Remote,,,,
f9205737-2ce2-4acf-a469-87640d5941da,Remote,Remote,,,,
99ab7a83-f075-4c44-a197-4954598d660a,Remote,Remote,,,,
da96859d-2d4e-4b01-9214-04f29239e5f7,Remote,Remote,,,,
d43f9147-973b-4277-9146-9009db675e92,Remote,Remote,,,,
1ebfd8f5-b260-498e-901d-4165de77e6d5,Remote,Remote,,,,
9e032cc0-8abc-4848-a089-bb1f36293219,"Berlin, Germany",,Berlin,,,Germany
86f1de78-c7c7-4be1-8372-d0d53c89e573,Flexible UK wide Home based/remote working from anywhere in the UK or based in one of our offices outside of London,Remote,,,,United Kingdom
4de32c60-5b9d-4050-8c22-4043a0330559,"Berlin, Germany",,Berlin,,,Germany
e97c8c2d-4e36-41b6-9b1d-abce5f69ba17,Odijk,,Odijk,,,Netherlands
257fce32-ad53-4621-be70-66abd466fdad,"Austin, Texas ",,Austin,Travis,TX,United States
d867b0f8-246e-4c0b-9355-5cc664e56484,"Austin, Texas ",,Austin,Travis,TX,United States
3ad2842a-bfbf-49d2-ae4c-ee0aeb047091,"Austin, TX",,Austin,Travis,TX,United States
76434f3f-21a6-4e27-aada-ad528130266c,"St. Louis, MO",,St. Louis,,MO,United States
b498313e-a1fd-466c-b7dd-2e2b1733cf37,Remote,Remote,,,,
bfddec80-c0a3-4c5e-a14f-52ff4723174b,Frankfurt am Main,,Frankfurt,,,Germany
21a76874-4de3-46a5-a6bd-7fa0b9b593d8,Frankfurt am Main,,Frankfurt,,,Germany
8eda681e-413d-4f38-aaf9-63d8059bf201,Plano Texas,,Plano,Collin,TX,United States
14f555e9-c713-49bb-92a4-6a75762dc92e,"Buffalo, New York",,Buffalo,Erie,NY,United States
7b45a5e1-ecaf-4717-a8d2-e2ebac38d57d,"San Francisco, CA",,San Francisco,San Francisco,CA,United States
9dfadced-e5dd-4845-ba8c-05686b2b0e39,"San Francisco, CA",,San Francisco,San Francisco,CA,United States
7e8830eb-91ab-4bae-8058-9d7dcecaaa73,"San Francisco, CA",,San Francisco,San Francisco,CA,United States
52426a6b-933f-4e96-903c-4d1544241fdb,"Stockholm, Sweden",,Stockholm,,,Sweden
397e09c5-2bbe-411f-b715-9229c3286b91,"Stockholm, Sweden",,Stockholm,,,Sweden
21dd549c-b871-4fc9-a08a-98ffca0b26fe,Malmo,,Malmo,,,Sweden
61b44fab-e038-4ddd-a5ce-d87557f20f0b,"Stockholm, Sweden",,Stockholm,,,Sweden
47c5c49b-c988-431c-a53f-f04e5182d31a,"Stockholm, Sweden",,Stockholm,,,Sweden
b3574392-e931-47e4-ab12-3ed46cef531c,Remote,Remote,,,,
ffca039b-d24b-4e7b-a0de-c02c09de35d3,"Den Haag, Netherlands",,Den Haag,,,Netherlands
2bf603f1-08ee-4e0f-bb49-8c351d610a73,Mainz,,Mainz,,,Germany
48424c3f-3d8d-4835-acda-68b852985da5,"Koblenz, Köln, Berlin, Martinsried, Fürth, Oberessendorf",,Berlin,,,Germany
ad13c1f2-73ec-4a7e-87f2-1ed4c6353d7e,"Paris, France",,Paris,,,France
c10b5508-6bbf-4b5b-a07e-7805d8a8ae53,"Montreal, Canada",,Montreal,,,Canada
1639d216-ea0c-4078-8c5b-1a5b29d3c28b,Sunnyvale,,Sunnyvale,Santa Clara,CA,United States
8ac1fc5b-bccf-45d1-b2b1-3df8dfdff0b8,"Godalming, Surrey or Milton Keynes",,Surrey,,,United Kingdom
469918b5-324c-49a3-9416-5924e35f6d1c,Portland OR,,Portland,Multnomah,OR,United States
ac8d1c1f-46f3-414a-a392-9043f493fca3,"Berlin, Germany",,Berlin,,,Germany
5cb94c0b-da2a-4ffc-b211-1c66f47b4673,"Berlin, Germany",,Berlin,,,Germany
0c197d23-a4c7-4b04-bb8b-4cbc916c331d,"Hamburg, Germany",,Hamburg,,,Germany
0b342660-0412-45b9-84ea-12343bc087b1,Remote,Remote,,,,
4b32e42b-c349-48f5-8e1e-3670236465b6,Remote,Remote,,,,
facc2ecb-4c3b-45df-956f-dd97a13c1ee3,"London, , United Kingdom",,London,,,United Kingdom
9e4129d5-6586-462a-b006-983e7f271fbf,"London, , United Kingdom",,London,,,United Kingdom
c80790f4-25b2-49ca-b806-27a89551a31e,"Barcelona, Spain",,Barcelona,,,Spain
5ff32758-9f64-4e51-8e3e-2ab91d1aa242,"Barcelona, Spain",,Barcelona,,,Spain
e186db7e-67b2-4a18-bb18-2556ef4d4837,"Barcelona, Spain",,Barcelona,,,Spain
eac0549e-0f79-4072-843c-32aabc06076f,"Santa Monica, CA",,Santa Monica,Los Angeles,CA,United States
983d8624-ecda-11e8-8a05-ab7888d34d93,"Austin, TX",,Austin,Travis,TX,United States
9c455180-ecca-11e8-886b-ae327644a48e,"Munich, Germany",,Munich,,,Germany
07b3ce1e-ecbd-11e8-9de2-0e34d5bd5011,Brisbane CBD Australia,,Brisbane,,,Australia
c5901f00-ec36-11e8-8d10-e7913612ce87,"San Francisco, CA",,San Francisco,San Francisco,CA,United States
45296f64-ec32-11e8-9e1b-5d24b20f1c0f,"Fairfield, CT",,Fairfield,Fairfield,CT,United States
7d0d5cf0-ec1f-11e8-9834-c8e30f51c014,"New York, New York",,New York,New York,NY,United States
319d7e3a-b768-11e8-965f-a3a06c674d8e,"Boulder, CO",,Boulder,Boulder,CO,United States
cd535970-ec11-11e8-89ae-2e904411ec0e,NY or LA,,New York,New York,NY,United States
312b993e-ec09-11e8-9f79-994c27d575a7,"Eindhoven, Netherlands",,Eindhoven,,,Netherlands
748e1a92-ec06-11e8-8005-27e34614d13f,"Eindhoven, Netherlands",,Eindhoven,,,Netherlands
011d0efa-ec02-11e8-9627-49b976c98ef2,"Eindhoven, Netherlands",,Eindhoven,,,Netherlands
b638fa4c-ebb7-11e8-9ea5-6578f16a7b3f,Remote,Remote,,,,
58490ea4-ebb7-11e8-8a9d-a208b946a979,Remote,Remote,,,,
fda26124-e9e7-11e8-9f44-4d0452dab2f9,"New York, New York",,New York,New York,NY,United States
ea94c57c-d0a1-11e8-9676-0d02532e57f6,North America,,,,,North America
0e46406e-d0a1-11e8-828b-ee6df9cc51d4,North America,,,,,North America
93a08496-e9c8-11e8-8e1e-09934e650343,"Minneapolis, MN",,Minneapolis,Hennepin,MN,United States
b0248344-89e5-11e8-87e5-7d6aa5fe3ed0,"Jacksonville, FL (Or Remote)",Remote,Jacksonville,Duval,FL,United States
deaa4312-e9b1-11e8-9902-330976f7a8e1,"Munich, Berlin",,Munich,,,Germany
f8c3413e-e99f-11e8-85e7-1cb84dad80e6,"Amsterdam, Netherlands",,Amsterdam,,,Netherlands
2744c836-e97b-11e8-8236-5be6ba23f176,Europe,Remote,,,,Europe
b99f4c2c-e94b-11e8-8abf-17c73d6427e2,Vancouver (remote),Remote,Vancouver,,,Canada
9565e6f2-e911-11e8-9c60-207d73fb5a53,"Austin, TX",,Austin,Travis,TX,United States
28dec9da-e90d-11e8-8317-fd99c2c2fb01,"Boston, MA",,Boston,Suffolk,MA,United States
47328346-e90c-11e8-9429-c09930ae6ec9,"Boston, MA",,Boston,Suffolk,MA,United States
02ff2dda-e8e6-11e8-9142-4af8e5c3597d,Cologne - Germany,,Cologne,,,Germany
728d85b4-e8d9-11e8-95cd-f13299063e9d,"Munich, Germany",,Munich,,,Germany
0b6885c4-e8d8-11e8-96fd-a4688df0d66b,"Munich, Germany",,Munich,,,Germany
62f8d66a-e8d6-11e8-9847-c1b90d211139,"Munich, Germany",,Munich,,,Germany
cd56c42e-e8d4-11e8-9faa-973443cc5fff,"Rotterdam, Netherlands",,Rotterdam,,,Netherlands
77077cda-e8d4-11e8-8a2f-200c8d1abebd,"Den Haag, Netherlands",,Den Haag,,,Netherlands
18f5af34-e8c7-11e8-85f6-109da02adff9,Remote,Remote,,,,
d28b2d1a-e85a-11e8-9b78-62dc829f5516,"Washington, DC & New York, NY",,Washington,,DC,United States
0e9e93a6-e85a-11e8-8963-f68a643e24dd,"Washington, DC & New York, NY",,Washington,,DC,United States
76fcadae-e84e-11e8-88fc-96a168773892,"Universal City, CA",,Universal City,Los Angeles,CA,United States
e7e9f752-e843-11e8-8126-18fc155e3556,"Raleigh, NC",,Raleigh,Wake,NC,United States
b8f154a4-e834-11e8-9704-9feb9c7d6747,"Burlington, VT",,Burlington,Chittenden,VT,United States
cb1e9170-e832-11e8-8c0b-1d1828cf3aff,"Berlin, Germany",,Berlin,,,Germany
b0332ea6-e82e-11e8-83b0-deabde06afe8,"Portland, OR or Offsite- USA",,Portland,Multnomah,OR,United States
dd8ca676-e814-11e8-9ed0-16c6818d7db3,Remote,Remote,,,,
a7737f78-e789-11e8-9333-b00dc2d03855,North America,,,,,North America
fa45a40c-e77e-11e8-8888-30684bb94b56,"Santa Clara, CA",,Santa Clara,Santa Clara,CA,United States
2c9f30d4-e77b-11e8-8aab-ce7423d373e0,"Redmond, WA",,Redmond,King,WA,United States
dc5e367e-e74d-11e8-83b6-bff5f2b12e4f,"Rotterdam, Netherlands",,Rotterdam,,,Netherlands
3777f9aa-e749-11e8-81e9-7454c0cb0145,"Rotterdam, Netherlands",,Rotterdam,,,Netherlands
96b72c48-85d2-11e8-8bb0-af6957d6ca0a,"Budapest, Hungary",,Budapest,,,Hungary
4cd29974-e48b-11e8-8478-fb9810f86b79,New York; Berlin,,New York,New York,NY,United States
9999f1f0-e448-11e8-966e-602e38acf303,"Redwood City, CA",,Redwood City,San Mateo,CA,United States
24c31152-e440-11e8-9240-8dede5d34cb0,"Cupertino, CA",,Cupertino,Santa Clara,CA,United States
dc428b94-e42e-11e8-91e2-23879ca9e8b0,"New York, New York",,New York,New York,NY,United States
f61bcf90-e400-11e8-8ff5-71d2e066e687,"Cambridge, UK",,Cambridge,,,United Kingdom
fd73244c-e39b-11e8-9988-7dec9fa666d4,"Iowa City, IA",,Iowa City,Johnson,IA,United States
336cc8d4-e39a-11e8-87d1-d137f96d2919,"Fort Collins, CO",,Fort Collins,Larimer,CO,United States
25d59ace-e391-11e8-9885-02574ef241c7,Remote,Remote,,,,
b82067ca-e322-11e8-814a-239ee3094eb4,Remote,Remote,,,,
99a4987e-6b50-11e8-848b-794d9c4e4459,"Chicago, IL, United States",,Chicago,Cook,IL,United States
e0076890-e2ac-11e8-80a2-ea86d7c13c57,"Raleigh, NC",,Raleigh,Wake,NC,United States
6087faee-e298-11e8-9e1d-f95949c20e77,"London, , United Kingdom",,London,,,United Kingdom
ea4a734e-c8c9-11e8-9b99-00d03040101f,Remote,Remote,,,,
9fac9c8c-e27c-11e8-808b-680cc0d53917,"Barcelona, Spain ",,Barcelona,,,Spain
e5f347ea-e277-11e8-989d-9bece5ee00a0,"Munich, Germany",,Munich,,,Germany
3110716a-e270-11e8-8d53-b93fc082dd27,"Munich, Germany",,Munich,,,Germany
fa15462c-e201-11e8-9ee9-cfbf28397977,"New York, New York",,New York,New York,NY,United States
36bb2228-e201-11e8-9310-b526bfa5a16e,"New York, New York",,New York,New York,NY,United States
c8029c4c-e149-11e8-8990-859aa5de6d3c,remote,Remote,,,,
ddf1f0b4-e1e1-11e8-8ffb-59cfab9aa6df,"Rochester, NY",,Rochester,Monroe,NY,United States
f62726c8-e1d6-11e8-96fe-e8de2ac8aeb6,"Berlin, Germany",,Berlin,,,Germany
a412770a-e1d3-11e8-8b9f-cf224f66af92,"Berlin, Germany",,Berlin,,,Germany
6bec4df4-e1b2-11e8-90e8-fe865b8dff7c,"Stuttgart, Germany",,Stuttgart,,,Germany
9636b280-e12a-11e8-819f-7c947fed1ee2,"Toronto, Canada",,Toronto,,,Canada
8c96ec9e-e130-11e8-9bb2-d87985623e61,Remote,Remote,,,,
0c5ec774-e124-11e8-9b59-6b693b26fde7,"Phoenix, Atlanta, Remote-US Based",Remote,Phoenix,Maricopa,AZ,United States
5dad93a8-e11f-11e8-9f88-578950b09034,"Phoenix, Atlanta, Remote-US Based",Remote,Phoenix,Maricopa,AZ,United States
1431441a-e113-11e8-905d-d8c25d6d076b,Remote,Remote,,,,
f4e46e80-e116-11e8-8fac-aba5b4c6653c,"Baltimore, MD",,Baltimore,Baltimore City,MD,United States
257a9838-e100-11e8-8338-76424afb236d,"Rotterdam, Netherlands",,Rotterdam,,,Netherlands
e10970ae-df31-11e8-8043-db2f2a1252c8,Australia and/or Remote,Remote,,,,Australia
cdd3b306-ded1-11e8-9d57-a9ea0396f64e,"New York, New York",,New York,New York,NY,United States
2d215050-dea2-11e8-9a31-2431d393de1e,"Bucharest, Romania",,Bucharest,,,Romania
00d88332-de76-11e8-8013-c709d4006bc8,"Helsinki, Finland",,Helsinki,,,Finland
a68e7a7c-de74-11e8-9ba1-aaa4059ab193,"Bristol, United Kingdom",,Bristol,,,United Kingdom
d5955556-de1b-11e8-97e2-45ff61609ad8,"Santa Monica, CA",,Santa Monica,Los Angeles,CA,United States
c65408fa-de19-11e8-844c-e31925c0b958,"Santa Monica, CA",,Santa Monica,Los Angeles,CA,United States
9e8ba450-e72e-11e7-926f-6ce07b7015c8,New York & London,,New York,New York,NY,United States
0a9333c4-71da-11e0-9ac7-692793c00b45,"New York, NY; London, UK; Hong Kong",,New York,New York,NY,United States
597d15fc-dda9-11e8-8d8c-9919a5047170,remote,Remote,,,,
fa55ec4a-dd65-11e8-867f-7944d54de916,"Pleasanton, CA",,Pleasanton,Alameda,CA,United States
adfadaec-dd63-11e8-859f-cbc9965a7cd1,Tokyo // Mountain View // Eugene,,Mountain View,Santa Clara,CA,United States
041ee91a-dd62-11e8-9c45-21fe88164ff0,Tokyo // Mountain View // Eugene,,Mountain View,Santa Clara,CA,United States
1ef41916-dd5f-11e8-98aa-d336cb7192b8,"Santa Monica, CA",,Santa Monica,Los Angeles,CA,United States
318c499a-dd55-11e8-8ca0-8bc7f92f7f80,"South Sioux City, NE",,South Sioux City,Dakota,NE,United States
48d5274e-dd45-11e8-8130-eacb3354d656,"Sunnyvale, CA ",,Sunnyvale,Santa Clara,CA,United States
dfa47394-dd33-11e8-96a4-acacdfc6a86d,"Iowa City, Iowa",,Iowa City,Johnson,IA,United States
d606d32c-dced-11e8-83b8-c94149410ae0,"Bali, Indonesia",,Bali,,,Indonesia
1ee011f0-dcbf-11e8-8f6b-cc4dc5b4578d,"New York, New York",,New York,New York,NY,United States
88f46fa4-dc70-11e8-9296-75ef13ea7473,Remote,Remote,,,,
f3e305e6-dc66-11e8-8ec9-7dcb52a38c24,"Mill Valley, CA",,Mill Valley,Marin,CA,United States
4ef36d90-dc62-11e8-9d0f-2748d202bd44,"London, , United Kingdom",,London,,,United Kingdom
794026f2-dc61-11e8-93e0-d70b82e36db1,"Bremen, Germany",,Bremen,,,Germany
547b8a96-dc5c-11e8-97cc-5b8cae901903,"Berlin, Germany",,Berlin,,,Germany
e1d19eee-dc52-11e8-96ba-b0ac08605d2d,"Capellen, Luxembourg",,Capellen,,,Luxembourg
83470dde-dc50-11e8-8176-9238b892b788,Remote,Remote,,,,
861ca26c-dc4b-11e8-8a59-311f92072400,"Berlin, Germany",,Berlin,,,Germany
04549d40-dc44-11e8-9734-43fedb2ca2af,Bonn or Köln,,Bonn,,,Germany
690c9fd8-dc37-11e8-9487-4c8007ecf678,"Frankfurt, Germany",,Frankfurt,,,Germany
f3ba7836-dc36-11e8-9e85-eda172fcc718,"Frankfurt, Germany",,Frankfurt,,,Germany
3cfd9704-dc36-11e8-90bf-c8a16734ec04,"Frankfurt, Germany",,Frankfurt,,,Germany
845ab1d2-dc26-11e8-8a3c-14f6bbf4ff70,"Montreal, Canada",,Montreal,,,Canada
0e2a0d92-dbad-11e8-8808-aa2ddc300084,Warrendale PA/Framingham MA/remote,Remote,Warrendale,Allegheny,PA,United States
170d9d44-c17b-11e8-9a28-51eee10fe313,"Munich, Germany",,Munich,,,Germany
9c05ad22-db73-11e8-9c0e-e095be9b13b5,"Barendrecht, Netherlands",,Barendrecht,,,Netherlands
5cfc5c04-d90f-11e8-9d50-d2e1d303c48e,"London, , United Kingdom",,London,,,United Kingdom
ec37b682-d902-11e8-9f44-b572cb1c6642,"Milan, Italy",,Milan,,,Italy
d42f9da4-d897-11e8-9e15-6308de92c469,"Austin, TX",,Austin,Travis,TX,United States
9bd2d6fa-d7ee-11e8-9f5e-c14b0048f133,"Los Angeles, CA",,Los Angeles,Los Angeles,CA,United States
0b0b5ff2-d7c1-11e8-88ec-ba50e54bd4a0,"New York, New York",,New York,New York,NY,United States
500a45e8-d797-11e8-9589-a611be182446,"Austin, Texas ",,Austin,Travis,TX,United States
d662ff1e-d796-11e8-8c81-a8499a7d1c85,"Austin, TX",,Austin,Travis,TX,United States
0d240e44-d792-11e8-8b88-a458e5f37601,"Amsterdam, Netherlands",,Amsterdam,,,Netherlands
7c44cf7c-d713-11e8-89be-b3e23046d61a,"New Orleans, LA",,New Orleans,Orleans,LA,United States
ac69c278-d70b-11e8-8d68-56afb6a47cd3,"Santa Barbara, CA",,Santa Barbara,Santa Barbara,CA,United States
c307e4ca-d6a6-11e8-8f6e-f00ef74f7cb0,Zurich,,Zurich,,,Switzerland
40ca8a98-a4bb-11e8-9a40-f75b414612e1,"New York, New York",,New York,New York,NY,United States
df5b47be-d612-11e8-88f4-50633736745c,"New York, New York",,New York,New York,NY,United States
da8ad94e-d5f8-11e8-8225-f199d46197fd,"Munich, Berlin",,Munich,,,Germany
95048694-1952-11e8-86d5-38e7f24d7ed9,Remote,Remote,,,,
c37e8b54-d555-11e8-8730-c2f34a443e55,"Oslo,, Norway",,Oslo,,,Norway
